GLOBALSTAR M057 [-]     
1 25943U 99058A   23313.16809635 -.00000064  00000+0  26158-3 0  9999
2 25943  51.9977 211.2425 0001571 246.7633 113.3051 12.24778156 95196
GLOBALSTAR M059 [-]     
1 25944U 99058B   23313.43460087 -.00000047  00000+0  49039-3 0  9998
2 25944  52.0043 351.7872 0000219 221.0065 243.2571 11.99954284 92479
GLOBALSTAR M056 [-]     
1 25945U 99058C   23313.54369203 -.00000096  00000+0 -97439-4 0  9992
2 25945  51.9995   8.4975 0001290 110.9920  36.4532 12.04771037 92086
GLOBALSTAR M031 [-]     
1 25946U 99058D   23312.70917126 -.00000002  00000+0  89678-3 0  9994
2 25946  51.9974 298.1865 0001957  63.2606 107.6922 12.15999015 93198
GLOBALSTAR M039 [-]     
1 25961U 99062A   23313.14030179 -.00000080  00000+0  13508-3 0  9994
2 25961  51.9848 253.6176 0003071 116.5210 243.5972 12.62273747106232
GLOBALSTAR M034 [-]     
1 25962U 99062B   23312.73005468 -.00000052  00000+0  45727-3 0  9999
2 25962  51.9854  95.7943 0014034  18.2837 354.9850 11.79417252 69194
GLOBALSTAR M029 [-]     
1 25963U 99062C   23313.25114718 -.00000075  00000+0  13790-3 0  9997
2 25963  51.9803 240.8193 0003414  49.0076 117.8162 11.99870052 98834
GLOBALSTAR M061 [-]     
1 25964U 99062D   23313.18805391 -.00000063  00000+0  28856-3 0  9990
2 25964  51.9792 270.8786 0005951 310.0747  63.0864 11.76753025 52484
